FLOCK 2P-9              
1 41610U 16040M   17168.13155491  .00001417  00000-0  64666-4 0  9990
2 41610  97.4590 230.7613 0012896  77.5373 282.7305 15.22191970 54494
FLOCK 2P-4              
1 41611U 16040N   17168.15908021  .00002998  00000-0  13345-3 0  9990
2 41611  97.4612 230.9890 0013170  85.4916 274.7825 15.22175925 54665
FLOCK 2P-10             
1 41612U 16040P   17168.13723498  .00002709  00000-0  12090-3 0  9998
2 41612  97.4622 231.0387 0012913  85.4362 274.8348 15.22171776 54660
FLOCK 2P-8              
1 41613U 16040Q   17168.28493462  .00002117  00000-0  95140-4 0  9991
2 41613  97.4613 231.1312 0013015  84.6329 275.6391 15.22180610 54684
FLOCK 2P-12             
1 41614U 16040R   17168.11515499  .00004014  00000-0  17754-3 0  9991
2 41614  97.4623 231.0969 0012703  85.0604 275.2082 15.22192240 54660
FLOCK 2P-7              
1 41615U 16040S   17168.27957237  .00001761  00000-0  79706-4 0  9991
2 41615  97.4614 231.1261 0012919  85.6632 274.6080 15.22168368 54680
FLOCK 2P-5              
1 41616U 16040T   17168.12625457  .00003180  00000-0  14138-3 0  9996
2 41616  97.4624 231.0815 0012750  84.5616 275.7074 15.22171427 54640
FLOCK 2P-1              
1 41617U 16040U   17168.11465116  .00003631  00000-0  16097-3 0  9997
2 41617  97.4626 231.0961 0012576  85.4220 274.8452 15.22178715 54661
FLOCK 2P-3              
1 41618U 16040V   17168.14261058  .00002776  00000-0  12381-3 0  9991
2 41618  97.4623 231.0542 0012615  85.1132 275.1544 15.22182376 54661
BEESAT-4                
1 41619U 16040W   17168.12557584  .00001774  00000-0  83604-4 0  9996
2 41619  97.4625 230.5138 0013742  71.7174 288.5556 15.20745058 42587
3CAT-2                  
1 41732U 16051B   17168.19409817  .00001230  00000-0  52274-4 0  9992
2 41732  97.3767  85.1843 0012245 276.0698 223.3303 15.24878504 46537
FLOCK 2E'-13            
1 41761U 98067KH  17168.02256281  .00011180  00000-0  13782-3 0  9993
2 41761  51.6388  31.4969 0005680 258.6901 101.3455 15.60727022 42887
FLOCK 2E'-14            
1 41762U 98067KJ  17168.00797226  .00010029  00000-0  12349-3 0  9990
2 41762  51.6400  31.4219 0005603 258.0126 102.0240 15.60897337 42886
FLOCK 2E'-16            
1 41763U 98067KK  17168.23550804  .00012899  00000-0  15437-3 0  9993
2 41763  51.6402  29.9374 0004848 271.3989  88.6450 15.61346192 42889
FLOCK 2E'-15            
1 41764U 98067KL  17168.03363241  .00010173  00000-0  12648-3 0  9993
2 41764  51.6399  31.5883 0005235 266.4306  93.6089 15.60625233 42843
FLOCK 2E'-18            
1 41769U 98067KM  17168.01934188  .00010138  00000-0  12589-3 0  9995
2 41769  51.6398  31.4869 0004293 293.1657  66.8884 15.60665423 42849
FLOCK 2E'-17            
1 41776U 98067KN  17168.01172914  .00010381  00000-0  12850-3 0  9995
2 41776  51.6407  31.4534 0004650 293.0275  67.0227 15.60716946 42839
FLOCK 2E'-19            
1 41777U 98067KP  17168.06384563  .00015399  00000-0  17093-3 0  9994
2 41777  51.6385  28.7653 0003642 293.5108  66.5504 15.63131889 42838
FLOCK 2E'-20            
1 41782U 98067KQ  17168.19078138  .00014870  00000-0  16988-3 0  9997
2 41782  51.6399  28.8863 0003598 288.7106  71.3498 15.62419143 42711
CANX-7                  
1 41788U 16059F   17168.06325238  .00008099  00000-0  15244-2 0  9995
2 41788  98.1731 229.8347 0037479 162.6089 197.6507 14.64388785 38578
ALSAT 1N                
1 41789U 16059G   17168.14948285  .00000089  00000-0  26141-4 0  9999
2 41789  98.1664 230.0240 0028936 152.4892 207.7854 14.64049695 38603
RAVAN                   
1 41849U 16067B   17168.22426062  .00001369  00000-0  12437-3 0  9992
2 41849  97.9486 246.2966 0006978 303.8912  56.1645 14.96975719 32518
CELTEE 1                
1 41850U 16067C   17168.19623126 -.00000233  00000-0 -15096-4 0  9996
2 41850  97.9485 246.1787 0007777 303.8591  56.1889 14.96551882 32500
OPTICUBE 04             
1 41851U 16067D   17168.20183316 -.00000161  00000-0 -88176-5 0  9991
2 41851  97.9481 246.1715 0007888 304.5672  55.4804 14.96484128 32506
AEROCUBE 8D             
1 41852U 16067E   17168.18275536  .00000099  00000-0  14192-4 0  9999
2 41852  97.9499 246.0675 0008431 304.9347  55.1081 14.96198711 32490
AEROCUBE 8C             
1 41853U 16067F   17168.18809279 -.00000132  00000-0 -62704-5 0  9990
2 41853  97.9498 246.0592 0008903 305.6530  54.3861 14.96160882 32499
PROMETHEUS 2-1          
1 41854U 16067G   17168.20252987  .00000239  00000-0  26675-4 0  9994
2 41854  97.9496 246.0431 0009307 303.9553  56.0782 14.96109553 32494
PROMETHEUS 2-3          
1 41855U 16067H   17168.20390896  .00000285  00000-0  30787-4 0  9997
2 41855  97.9496 246.0439 0009463 304.1052  55.9270 14.96100820 32491
LEMUR-2-XIAOQING        
1 41871U 16062C   17168.25824169  .00002806  00000-0  13457-3 0  9995
2 41871  51.6355  86.6373 0005088 223.8476 205.1245 15.22232132 30953
LEMUR-2-SOKOLSKY        
1 41872U 16062D   17168.19368410  .00001887  00000-0  95062-4 0  9992
2 41872  51.6250  86.8041 0004556 225.2283 282.6941 15.22276788 30939
LEMUR-2-ANUBHAVTHAKUR   
1 41873U 16062E   17168.18565968 -.00000267  00000-0  28213-5 0  9996
2 41873  51.6355  87.5124 0006861 234.4718 271.0024 15.21504749 30914
LEMUR-2-WINGO           
1 41874U 16062F   17168.15106382  .00002279  00000-0  11252-3 0  9992
2 41874  51.6473  87.2866 0005390 223.5234 276.6914 15.22070991 30922
STARS-C                 
1 41895U 98067KR  17168.21196539  .00031218  00000-0  36127-3 0  9993
2 41895  51.6390  33.5192 0003367 318.3783  41.6954 15.61558528 27990
TANCREDO-1              
1 41931U 98067KT  17168.16452569  .00058894  00000-0  53434-3 0  9995
2 41931  51.6372  30.9305 0004838 258.7365 101.3087 15.67420451 23597
ITF-2                   
1 41932U 98067KU  17168.01531615  .00013864  00000-0  17952-3 0  9993
2 41932  51.6414  35.9702 0004682 264.2008  95.8451 15.59188673 23516
WASEDA-SAT3             
1 41933U 98067KV  17168.05585015  .00016885  00000-0  21282-3 0  9998
2 41933  51.6397  35.4797 0004568 265.9153  94.1318 15.59724270 23522
AOBA-VELOX 3            
1 41935U 98067KX  17168.13390195  .00015694  00000-0  20001-3 0  9997
2 41935  51.6414  35.2590 0004090 268.1123  91.9401 15.59495954 23639
TUPOD                   
1 41936U 98067KY  17168.00942954  .00106448  00000-0  78260-3 0  9998
2 41936  51.6362  29.8854 0004041 246.6098 113.4476 15.72255346 23076
OSNSAT                  
1 41939U 98067KZ  17168.00545654  .00033707  00000-0  36168-3 0  9995
2 41939  51.6390  33.6341 0005326 265.3619  94.6768 15.63457490 22907
FLOCK 3P-8              
1 41951U 17008D   17168.17192815  .00003606  00000-0  15906-3 0  9992
2 41951  97.4952 229.4808 0008522 180.6558 179.4668 15.22405901 18538
FLOCK 3P-51             
1 41952U 17008E   17168.21237294  .00002445  00000-0  10844-3 0  9995
2 41952  97.4959 229.5895 0007823 199.3365 160.7575 15.22535848 18544
FLOCK 3P-37             
1 41953U 17008F   17168.25493526  .00003150  00000-0  13744-3 0  9998
2 41953  97.4957 229.6804 0007071 203.1355 156.9564 15.22882015 18559
INS-1B                  
1 41954U 17008G   17168.20401873  .00001662  00000-0  76487-4 0  9998
2 41954  97.4935 229.4050 0009605 181.9783 178.1416 15.21712144 18477
FLOCK 3P-19             
1 41955U 17008H   17168.25040641  .00004489  00000-0  19779-3 0  9996
2 41955  97.4947 229.5232 0009420 181.2148 178.9067 15.22299857 18468
FLOCK 3P-24             
1 41956U 17008J   17168.24992349  .00003990  00000-0  17598-3 0  9990
2 41956  97.4948 229.5245 0009420 178.4342 181.6925 15.22331368 18545
FLOCK 3P-18             
1 41957U 17008K   17168.12006670  .00005880  00000-0  25801-3 0  9997
2 41957  97.4948 229.3938 0009446 180.3781 179.7450 15.22309105 18365
FLOCK 3P-22             
1 41958U 17008L   17168.18646521  .00003998  00000-0  17676-3 0  9998
2 41958  97.4949 229.4586 0009282 179.8378 180.2862 15.22249673 18367
FLOCK 3P-21             
1 41959U 17008M   17168.17783234  .00004842  00000-0  21306-3 0  9995
2 41959  97.4953 229.4753 0009011 181.8069 178.3136 15.22308475 18378
FLOCK 3P-28             
1 41960U 17008N   17168.17701015  .00003844  00000-0  16946-3 0  9999
2 41960  97.4952 229.4744 0008844 180.1539 179.9696 15.22378001 18455
FLOCK 3P-26             
1 41961U 17008P   17168.11758949  .00004847  00000-0  21349-3 0  9999
2 41961  97.4950 229.3995 0009111 179.7275 180.3967 15.22274789 18365
FLOCK 3P-17             
1 41962U 17008Q   17168.23452164  .00004905  00000-0  21493-3 0  9998
2 41962  97.4951 229.5504 0008772 182.2016 177.9183 15.22447236 18337
FLOCK 3P-27             
1 41963U 17008R   17168.18730810  .00003977  00000-0  17612-3 0  9996
2 41963  97.4952 229.4618 0009228 180.0778 180.0458 15.22198024 18374
FLOCK 3P-25             
1 41964U 17008S   17168.11422343  .00004098  00000-0  18079-3 0  9992
2 41964  97.4950 229.4023 0008831 180.5579 179.5649 15.22311428 18343
FLOCK 3P-4              
1 41965U 17008T   17168.24104485  .00004632  00000-0  20362-3 0  9993
2 41965  97.4952 229.5436 0008727 181.2828 178.8387 15.22365431 18461
FLOCK 3P-2              
1 41966U 17008U   17168.10944938  .00004182  00000-0  18417-3 0  9992
2 41966  97.4954 229.4150 0008649 179.8574 180.2666 15.22365087 18363
FLOCK 3P-1              
1 41967U 17008V   17168.17847212  .00003202  00000-0  14235-3 0  9993
2 41967  97.4956 229.4774 0008701 180.7797 179.3427 15.22218607 18375
FLOCK 3P-3              
1 41968U 17008W   17168.24277878  .00004235  00000-0  18657-3 0  9996
2 41968  97.4952 229.5408 0008754 179.6266 180.4978 15.22339122 18463
FLOCK 3P-6              
1 41969U 17008X   17168.17412828  .00003970  00000-0  17498-3 0  9992
2 41969  97.4955 229.4823 0008529 179.5464 180.5781 15.22368999 18362
FLOCK 3P-7              
1 41970U 17008Y   17168.22728994  .00002841  00000-0  12559-3 0  9993
2 41970  97.4955 229.5652 0008503 182.8196 177.2994 15.22505002 18385
